SL-14 R/B               
1 21423U 91042B   26038.10074090  .00000506  00000+0  61011-4 0  9991
2 21423  82.4899 248.8735 0016684 346.7344  13.3429 14.81800423848549
ERS-1                   
1 21574U 91050A   26038.04275588  .00000470  00000+0  16499-3 0  9994
2 21574  98.7896  55.5066 0030961 294.0185  65.7762 14.39424073811328
ARIANE 40 R/B           
1 21610U 91050F   26038.16656989  .00000421  00000+0  13866-3 0  9997
2 21610  98.2077  91.5389 0003713 149.2324 210.9084 14.42870815814590
INTERCOSMOS 25          
1 21819U 91086A   26037.86188166  .00001154  00000+0  22376-3 0  9990
2 21819  82.6087 328.6369 1486682 183.3455 175.6722 12.11914456492958
SL-8 R/B                
1 21876U 92008B   26038.19092538  .00000063  00000+0  49030-4 0  9997
2 21876  82.9267 290.4669 0033758 218.3696 253.5748 13.75969598705229
SL-8 R/B                
1 21938U 92020B   26037.93481414  .00000142  00000+0  13167-3 0  9995
2 21938  82.9327 176.5892 0029408  26.0900  91.1263 13.75544791696902
USA 81                  
1 21949U 92023A   26037.92128344  .00000296  00000+0  10223-3 0  9999
2 21949  85.0119 149.1820 0002549 105.0087 255.1388 14.32356434 90384
COSMOS 2219             
1 22219U 92076A   26038.17418407 -.00000132  00000+0 -44483-4 0  9995
2 22219  71.0585  81.8640 0020405 249.1103 110.7835 14.14076807714063
SL-16 R/B               
1 22220U 92076B   26038.06672794  .00000173  00000+0  11011-3 0  9999
2 22220  70.9980 252.8814 0011605 150.8095 323.8049 14.16855283717494
COSMOS 2221             
1 22236U 92080A   26038.13984429  .00002932  00000+0  25835-3 0  9994
2 22236  82.5059 308.3384 0013001 299.6145  60.3781 14.96078104776225
SL-16 R/B               
1 22285U 92093B   26038.13928854 -.00000153  00000+0 -53876-4 0  9994
2 22285  71.0201  68.4017 0005100 325.5996  34.4796 14.15441178708838
COSMOS 2228             
1 22286U 92094A   26038.10932884  .00002977  00000+0  25533-3 0  9993
2 22286  82.5157 266.5938 0019184  47.8927 312.3922 14.97050400771488
