CCSDS_OMM_VERS = 2.0
CREATION_DATE  = 
ORIGINATOR     = 

OBJECT_NAME    = SL-14 R/B
OBJECT_ID      = 1991-042B
CENTER_NAME    = EARTH
REF_FRAME      = TEME
TIME_SYSTEM    = UTC
MEAN_ELEMENT_THEORY = SGP/SGP4

EPOCH          = 2026-02-07T02:25:04.013760
MEAN_MOTION    = 14.81800423
ECCENTRICITY   = .0016684
INCLINATION    = 82.4899
RA_OF_ASC_NODE = 248.8735
ARG_OF_PERICENTER = 346.7344
MEAN_ANOMALY   = 13.3429

EPHEMERIS_TYPE = 0
CLASSIFICATION_TYPE = U
NORAD_CAT_ID   = 21423
ELEMENT_SET_NO = 999
REV_AT_EPOCH   = 84854
BSTAR          = .61011E-4
MEAN_MOTION_DOT = .506E-5
MEAN_MOTION_DDOT = 0

CCSDS_OMM_VERS = 2.0
CREATION_DATE  = 
ORIGINATOR     = 

OBJECT_NAME    = ERS-1
OBJECT_ID      = 1991-050A
CENTER_NAME    = EARTH
REF_FRAME      = TEME
TIME_SYSTEM    = UTC
MEAN_ELEMENT_THEORY = SGP/SGP4

EPOCH          = 2026-02-07T01:01:34.108032
MEAN_MOTION    = 14.39424073
ECCENTRICITY   = .0030961
INCLINATION    = 98.7896
RA_OF_ASC_NODE = 55.5066
ARG_OF_PERICENTER = 294.0185
MEAN_ANOMALY   = 65.7762

EPHEMERIS_TYPE = 0
CLASSIFICATION_TYPE = U
NORAD_CAT_ID   = 21574
ELEMENT_SET_NO = 999
REV_AT_EPOCH   = 81132
BSTAR          = .16499E-3
MEAN_MOTION_DOT = .47E-5
MEAN_MOTION_DDOT = 0

CCSDS_OMM_VERS = 2.0
CREATION_DATE  = 
ORIGINATOR     = 

OBJECT_NAME    = ARIANE 40 R/B
OBJECT_ID      = 1991-050F
CENTER_NAME    = EARTH
REF_FRAME      = TEME
TIME_SYSTEM    = UTC
MEAN_ELEMENT_THEORY = SGP/SGP4

EPOCH          = 2026-02-07T03:59:51.638496
MEAN_MOTION    = 14.42870815
ECCENTRICITY   = .0003713
INCLINATION    = 98.2077
RA_OF_ASC_NODE = 91.5389
ARG_OF_PERICENTER = 149.2324
MEAN_ANOMALY   = 210.9084

EPHEMERIS_TYPE = 0
CLASSIFICATION_TYPE = U
NORAD_CAT_ID   = 21610
ELEMENT_SET_NO = 999
REV_AT_EPOCH   = 81459
BSTAR          = .13866E-3
MEAN_MOTION_DOT = .421E-5
MEAN_MOTION_DDOT = 0

CCSDS_OMM_VERS = 2.0
CREATION_DATE  = 
ORIGINATOR     = 

OBJECT_NAME    = INTERCOSMOS 25
OBJECT_ID      = 1991-086A
CENTER_NAME    = EARTH
REF_FRAME      = TEME
TIME_SYSTEM    = UTC
MEAN_ELEMENT_THEORY = SGP/SGP4

EPOCH          = 2026-02-06T20:41:06.575424
MEAN_MOTION    = 12.11914456
ECCENTRICITY   = .1486682
INCLINATION    = 82.6087
RA_OF_ASC_NODE = 328.6369
ARG_OF_PERICENTER = 183.3455
MEAN_ANOMALY   = 175.6722

EPHEMERIS_TYPE = 0
CLASSIFICATION_TYPE = U
NORAD_CAT_ID   = 21819
ELEMENT_SET_NO = 999
REV_AT_EPOCH   = 49295
BSTAR          = .22376E-3
MEAN_MOTION_DOT = .1154E-4
MEAN_MOTION_DDOT = 0

CCSDS_OMM_VERS = 2.0
CREATION_DATE  = 
ORIGINATOR     = 

OBJECT_NAME    = SL-8 R/B
OBJECT_ID      = 1992-008B
CENTER_NAME    = EARTH
REF_FRAME      = TEME
TIME_SYSTEM    = UTC
MEAN_ELEMENT_THEORY = SGP/SGP4

EPOCH          = 2026-02-07T04:34:55.952832
MEAN_MOTION    = 13.75969598
ECCENTRICITY   = .0033758
INCLINATION    = 82.9267
RA_OF_ASC_NODE = 290.4669
ARG_OF_PERICENTER = 218.3696
MEAN_ANOMALY   = 253.5748

EPHEMERIS_TYPE = 0
CLASSIFICATION_TYPE = U
NORAD_CAT_ID   = 21876
ELEMENT_SET_NO = 999
REV_AT_EPOCH   = 70522
BSTAR          = .4903E-4
MEAN_MOTION_DOT = .63E-6
MEAN_MOTION_DDOT = 0

CCSDS_OMM_VERS = 2.0
CREATION_DATE  = 
ORIGINATOR     = 

OBJECT_NAME    = SL-8 R/B
OBJECT_ID      = 1992-020B
CENTER_NAME    = EARTH
REF_FRAME      = TEME
TIME_SYSTEM    = UTC
MEAN_ELEMENT_THEORY = SGP/SGP4

EPOCH          = 2026-02-06T22:26:07.941696
MEAN_MOTION    = 13.75544791
ECCENTRICITY   = .0029408
INCLINATION    = 82.9327
RA_OF_ASC_NODE = 176.5892
ARG_OF_PERICENTER = 26.0900
MEAN_ANOMALY   = 91.1263

EPHEMERIS_TYPE = 0
CLASSIFICATION_TYPE = U
NORAD_CAT_ID   = 21938
ELEMENT_SET_NO = 999
REV_AT_EPOCH   = 69690
BSTAR          = .13167E-3
MEAN_MOTION_DOT = .142E-5
MEAN_MOTION_DDOT = 0

CCSDS_OMM_VERS = 2.0
CREATION_DATE  = 
ORIGINATOR     = 

OBJECT_NAME    = USA 81
OBJECT_ID      = 1992-023A
CENTER_NAME    = EARTH
REF_FRAME      = TEME
TIME_SYSTEM    = UTC
MEAN_ELEMENT_THEORY = SGP/SGP4

EPOCH          = 2026-02-06T22:06:38.889216
MEAN_MOTION    = 14.32356434
ECCENTRICITY   = .0002549
INCLINATION    = 85.0119
RA_OF_ASC_NODE = 149.1820
ARG_OF_PERICENTER = 105.0087
MEAN_ANOMALY   = 255.1388

EPHEMERIS_TYPE = 0
CLASSIFICATION_TYPE = U
NORAD_CAT_ID   = 21949
ELEMENT_SET_NO = 999
REV_AT_EPOCH   = 9038
BSTAR          = .10223E-3
MEAN_MOTION_DOT = .296E-5
MEAN_MOTION_DDOT = 0

CCSDS_OMM_VERS = 2.0
CREATION_DATE  = 
ORIGINATOR     = 

OBJECT_NAME    = COSMOS 2219
OBJECT_ID      = 1992-076A
CENTER_NAME    = EARTH
REF_FRAME      = TEME
TIME_SYSTEM    = UTC
MEAN_ELEMENT_THEORY = SGP/SGP4

EPOCH          = 2026-02-07T04:10:49.503648
MEAN_MOTION    = 14.14076807
ECCENTRICITY   = .0020405
INCLINATION    = 71.0585
RA_OF_ASC_NODE = 81.8640
ARG_OF_PERICENTER = 249.1103
MEAN_ANOMALY   = 110.7835

EPHEMERIS_TYPE = 0
CLASSIFICATION_TYPE = U
NORAD_CAT_ID   = 22219
ELEMENT_SET_NO = 999
REV_AT_EPOCH   = 71406
BSTAR          = -.44483E-4
MEAN_MOTION_DOT = -.132E-5
MEAN_MOTION_DDOT = 0

CCSDS_OMM_VERS = 2.0
CREATION_DATE  = 
ORIGINATOR     = 

OBJECT_NAME    = SL-16 R/B
OBJECT_ID      = 1992-076B
CENTER_NAME    = EARTH
REF_FRAME      = TEME
TIME_SYSTEM    = UTC
MEAN_ELEMENT_THEORY = SGP/SGP4

EPOCH          = 2026-02-07T01:36:05.294016
MEAN_MOTION    = 14.16855283
ECCENTRICITY   = .0011605
INCLINATION    = 70.9980
RA_OF_ASC_NODE = 252.8814
ARG_OF_PERICENTER = 150.8095
MEAN_ANOMALY   = 323.8049

EPHEMERIS_TYPE = 0
CLASSIFICATION_TYPE = U
NORAD_CAT_ID   = 22220
ELEMENT_SET_NO = 999
REV_AT_EPOCH   = 71749
BSTAR          = .11011E-3
MEAN_MOTION_DOT = .173E-5
MEAN_MOTION_DDOT = 0

CCSDS_OMM_VERS = 2.0
CREATION_DATE  = 
ORIGINATOR     = 

OBJECT_NAME    = COSMOS 2221
OBJECT_ID      = 1992-080A
CENTER_NAME    = EARTH
REF_FRAME      = TEME
TIME_SYSTEM    = UTC
MEAN_ELEMENT_THEORY = SGP/SGP4

EPOCH          = 2026-02-07T03:21:22.546656
MEAN_MOTION    = 14.96078104
ECCENTRICITY   = .0013001
INCLINATION    = 82.5059
RA_OF_ASC_NODE = 308.3384
ARG_OF_PERICENTER = 299.6145
MEAN_ANOMALY   = 60.3781

EPHEMERIS_TYPE = 0
CLASSIFICATION_TYPE = U
NORAD_CAT_ID   = 22236
ELEMENT_SET_NO = 999
REV_AT_EPOCH   = 77622
BSTAR          = .25835E-3
MEAN_MOTION_DOT = .2932E-4
MEAN_MOTION_DDOT = 0

CCSDS_OMM_VERS = 2.0
CREATION_DATE  = 
ORIGINATOR     = 

OBJECT_NAME    = SL-16 R/B
OBJECT_ID      = 1992-093B
CENTER_NAME    = EARTH
REF_FRAME      = TEME
TIME_SYSTEM    = UTC
MEAN_ELEMENT_THEORY = SGP/SGP4

EPOCH          = 2026-02-07T03:20:34.529856
MEAN_MOTION    = 14.15441178
ECCENTRICITY   = .00051
INCLINATION    = 71.0201
RA_OF_ASC_NODE = 68.4017
ARG_OF_PERICENTER = 325.5996
MEAN_ANOMALY   = 34.4796

EPHEMERIS_TYPE = 0
CLASSIFICATION_TYPE = U
NORAD_CAT_ID   = 22285
ELEMENT_SET_NO = 999
REV_AT_EPOCH   = 70883
BSTAR          = -.53876E-4
MEAN_MOTION_DOT = -.153E-5
MEAN_MOTION_DDOT = 0

CCSDS_OMM_VERS = 2.0
CREATION_DATE  = 
ORIGINATOR     = 

OBJECT_NAME    = COSMOS 2228
OBJECT_ID      = 1992-094A
CENTER_NAME    = EARTH
REF_FRAME      = TEME
TIME_SYSTEM    = UTC
MEAN_ELEMENT_THEORY = SGP/SGP4

EPOCH          = 2026-02-07T02:37:26.011776
MEAN_MOTION    = 14.97050400
ECCENTRICITY   = .0019184
INCLINATION    = 82.5157
RA_OF_ASC_NODE = 266.5938
ARG_OF_PERICENTER = 47.8927
MEAN_ANOMALY   = 312.3922

EPHEMERIS_TYPE = 0
CLASSIFICATION_TYPE = U
NORAD_CAT_ID   = 22286
ELEMENT_SET_NO = 999
REV_AT_EPOCH   = 77148
BSTAR          = .25533E-3
MEAN_MOTION_DOT = .2977E-4
MEAN_MOTION_DDOT = 0

